{
  "norad_id": 52638,
  "name": "STARLINK-3941",
  "history": [
    {
      "epoch": "2026-03-28T15:29:34.508256Z",
      "apogee_km": 540.5645932709449,
      "perigee_km": 538.8807862224603,
      "latitude_deg": 2.4271087112743697e-05,
      "longitude_deg": 125.56982624692641,
      "height_km": 540.5253260568568,
      "semi_major_axis_km": 6917.859689746702,
      "eccentricity": 0.0001217,
      "inclination_deg": 53.2164,
      "raan_deg": 184.0266,
      "arg_perigee_deg": 83.6462,
      "mean_anomaly_deg": 276.4669,
      "mean_motion_rev_day": 15.08846772
    },
    {
      "epoch": "2026-03-28T23:26:30.746400Z",
      "apogee_km": 540.7128999563847,
      "perigee_km": 538.7869602350456,
      "latitude_deg": -6.016667368681633e-07,
      "longitude_deg": 4.520030040232684,
      "height_km": 540.9219094326876,
      "semi_major_axis_km": 6917.886930095715,
      "eccentricity": 0.0001392,
      "inclination_deg": 53.2173,
      "raan_deg": 182.5376,
      "arg_perigee_deg": 106.671,
      "mean_anomaly_deg": 253.4435,
      "mean_motion_rev_day": 15.0883786
    },
    {
      "epoch": "2026-03-29T05:48:03.496032Z",
      "apogee_km": 540.6521493606942,
      "perigee_km": 538.8485177750863,
      "latitude_deg": -2.57673330395385e-06,
      "longitude_deg": -92.31508695344681,
      "height_km": 540.5765723487983,
      "semi_major_axis_km": 6917.88733356789,
      "eccentricity": 0.00013036,
      "inclination_deg": 53.2159,
      "raan_deg": 181.3501,
      "arg_perigee_deg": 85.5869,
      "mean_anomaly_deg": 274.5272,
      "mean_motion_rev_day": 15.08837728
    },
    {
      "epoch": "2026-03-30T12:00:23.215680Z",
      "apogee_km": 540.6393964567824,
      "perigee_km": 538.8455903041486,
      "latitude_deg": 1.3973104032931973e-05,
      "longitude_deg": 167.7122662270719,
      "height_km": 540.4649605266274,
      "semi_major_axis_km": 6917.879493380465,
      "eccentricity": 0.00012965,
      "inclination_deg": 53.2146,
      "raan_deg": 175.7001,
      "arg_perigee_deg": 78.8746,
      "mean_anomaly_deg": 281.2392,
      "mean_motion_rev_day": 15.08840293
    },
    {
      "epoch": "2026-03-31T11:51:09.735552Z",
      "apogee_km": 540.671634431952,
      "perigee_km": 538.7955079330486,
      "latitude_deg": 4.586604785033672e-05,
      "longitude_deg": 164.57802749886994,
      "height_km": 540.607666329975,
      "semi_major_axis_km": 6917.8705711825005,
      "eccentricity": 0.0001356,
      "inclination_deg": 53.2141,
      "raan_deg": 171.239,
      "arg_perigee_deg": 88.7013,
      "mean_anomaly_deg": 271.4135,
      "mean_motion_rev_day": 15.08843212
    },
    {
      "epoch": "2026-04-01T10:06:34.274592Z",
      "apogee_km": 540.5105772762954,
      "perigee_km": 538.9969427780015,
      "latitude_deg": -3.83344630666472e-05,
      "longitude_deg": -174.3518348512094,
      "height_km": 540.644431419983,
      "semi_major_axis_km": 6917.890760027149,
      "eccentricity": 0.0001094,
      "inclination_deg": 53.2164,
      "raan_deg": 167.0755,
      "arg_perigee_deg": 89.599,
      "mean_anomaly_deg": 270.5127,
      "mean_motion_rev_day": 15.08836607
    },
    {
      "epoch": "2026-04-02T11:32:43.972800Z",
      "apogee_km": 540.4796925171877,
      "perigee_km": 538.977962203383,
      "latitude_deg": 5.178010217441292e-06,
      "longitude_deg": 158.30626883058406,
      "height_km": 540.5550673855734,
      "semi_major_axis_km": 6917.865827360285,
      "eccentricity": 0.00010854,
      "inclination_deg": 53.2158,
      "raan_deg": 162.3186,
      "arg_perigee_deg": 84.6753,
      "mean_anomaly_deg": 275.4363,
      "mean_motion_rev_day": 15.08844764
    },
    {
      "epoch": "2026-04-02T21:05:02.648832Z",
      "apogee_km": 540.4862960623796,
      "perigee_km": 538.972666876235,
      "latitude_deg": -4.977944935555017e-06,
      "longitude_deg": 13.052011613670308,
      "height_km": 540.5133269464865,
      "semi_major_axis_km": 6917.8664814693075,
      "eccentricity": 0.0001094,
      "inclination_deg": 53.2155,
      "raan_deg": 160.5339,
      "arg_perigee_deg": 81.4863,
      "mean_anomaly_deg": 278.6253,
      "mean_motion_rev_day": 15.0884455
    },
    {
      "epoch": "2026-04-03T12:58:54.680160Z",
      "apogee_km": 540.7643074784692,
      "perigee_km": 538.7398564175282,
      "latitude_deg": 4.511490419876022e-05,
      "longitude_deg": 130.96115281224473,
      "height_km": 540.7155808317996,
      "semi_major_axis_km": 6917.889081947998,
      "eccentricity": 0.00014632,
      "inclination_deg": 53.2174,
      "raan_deg": 157.5627,
      "arg_perigee_deg": 93.8486,
      "mean_anomaly_deg": 266.2674,
      "mean_motion_rev_day": 15.08837156
    },
    {
      "epoch": "2026-04-05T12:40:28.238304Z",
      "apogee_km": 540.2294973434718,
      "perigee_km": 539.2199046068317,
      "latitude_deg": 1.7496529820629338e-05,
      "longitude_deg": 124.6883370034899,
      "height_km": 540.7543592280422,
      "semi_major_axis_km": 6917.8617009751515,
      "eccentricity": 7.297e-05,
      "inclination_deg": 53.2149,
      "raan_deg": 148.6384,
      "arg_perigee_deg": 105.3163,
      "mean_anomaly_deg": 254.791,
      "mean_motion_rev_day": 15.08846114
    },
    {
      "epoch": "2026-04-06T02:58:57.478368Z",
      "apogee_km": 540.2205284647707,
      "perigee_km": 539.3736349744868,
      "latitude_deg": -4.918248488646198e-05,
      "longitude_deg": -93.19586103300173,
      "height_km": 540.9528576419518,
      "semi_major_axis_km": 6917.934081719629,
      "eccentricity": 6.121e-05,
      "inclination_deg": 53.2144,
      "raan_deg": 145.9637,
      "arg_perigee_deg": 127.7485,
      "mean_anomaly_deg": 232.3562,
      "mean_motion_rev_day": 15.08822434
    },
    {
      "epoch": "2026-04-06T20:28:12.234432Z",
      "apogee_km": 540.4049461387394,
      "perigee_km": 539.111438095716,
      "latitude_deg": -1.9262774026825808e-05,
      "longitude_deg": 0.500892485613816,
      "height_km": 540.6598090175754,
      "semi_major_axis_km": 6917.895192117227,
      "eccentricity": 9.349e-05,
      "inclination_deg": 53.2159,
      "raan_deg": 142.6901,
      "arg_perigee_deg": 90.4866,
      "mean_anomaly_deg": 269.6233,
      "mean_motion_rev_day": 15.08835157
    },
    {
      "epoch": "2026-04-07T20:18:58.909824Z",
      "apogee_km": 540.3273977462895,
      "perigee_km": 539.161042972537,
      "latitude_deg": -1.5482244332529806e-05,
      "longitude_deg": -2.6318210395911006,
      "height_km": 540.4650140777464,
      "semi_major_axis_km": 6917.881220359413,
      "eccentricity": 8.43e-05,
      "inclination_deg": 53.2162,
      "raan_deg": 138.2312,
      "arg_perigee_deg": 72.482,
      "mean_anomaly_deg": 287.6264,
      "mean_motion_rev_day": 15.08839728
    },
    {
      "epoch": "2026-04-08T09:02:03.877728Z",
      "apogee_km": 540.3102616216447,
      "perigee_km": 539.1754526098839,
      "latitude_deg": -6.770889390730241e-06,
      "longitude_deg": 163.69667260933065,
      "height_km": 540.3851319065714,
      "semi_major_axis_km": 6917.879857115764,
      "eccentricity": 8.202e-05,
      "inclination_deg": 53.2161,
      "raan_deg": 135.8527,
      "arg_perigee_deg": 63.391,
      "mean_anomaly_deg": 296.7166,
      "mean_motion_rev_day": 15.08840174
    },
    {
      "epoch": "2026-04-09T08:52:51.659040Z",
      "apogee_km": 540.2994532252442,
      "perigee_km": 539.2257952035661,
      "latitude_deg": 1.2243592241785794e-05,
      "longitude_deg": 160.5578496403565,
      "height_km": 540.3597766829879,
      "semi_major_axis_km": 6917.899624214405,
      "eccentricity": 7.76e-05,
      "inclination_deg": 53.2155,
      "raan_deg": 131.3923,
      "arg_perigee_deg": 56.1134,
      "mean_anomaly_deg": 303.9932,
      "mean_motion_rev_day": 15.08833707
    },
    {
      "epoch": "2026-04-10T08:43:38.680896Z",
      "apogee_km": 540.3718349698484,
      "perigee_km": 539.1293823553315,
      "latitude_deg": -9.418356717272605e-06,
      "longitude_deg": 157.4219697915354,
      "height_km": 540.3258147714358,
      "semi_major_axis_km": 6917.88760866259,
      "eccentricity": 8.98e-05,
      "inclination_deg": 53.2159,
      "raan_deg": 126.9317,
      "arg_perigee_deg": 58.8722,
      "mean_anomaly_deg": 301.2358,
      "mean_motion_rev_day": 15.08837638
    },
    {
      "epoch": "2026-04-11T18:06:44.771904Z",
      "apogee_km": 540.4612920510144,
      "perigee_km": 539.0597260156846,
      "latitude_deg": 5.70201819909955e-05,
      "longitude_deg": 9.03036303083653,
      "height_km": 540.2837796485297,
      "semi_major_axis_km": 6917.897509033349,
      "eccentricity": 0.0001013,
      "inclination_deg": 53.2159,
      "raan_deg": 120.6865,
      "arg_perigee_deg": 57.8463,
      "mean_anomaly_deg": 302.2628,
      "mean_motion_rev_day": 15.08834399
    },
    {
      "epoch": "2026-04-13T01:54:27.693216Z",
      "apogee_km": 540.4965855468718,
      "perigee_km": 539.0042588721526,
      "latitude_deg": 8.439672121475214e-06,
      "longitude_deg": -115.15189749836682,
      "height_km": 540.2616329973712,
      "semi_major_axis_km": 6917.887422209512,
      "eccentricity": 0.00010786,
      "inclination_deg": 53.2159,
      "raan_deg": 114.7389,
      "arg_perigee_deg": 58.9436,
      "mean_anomaly_deg": 301.1662,
      "mean_motion_rev_day": 15.08837699
    },
    {
      "epoch": "2026-04-14T17:39:05.947200Z",
      "apogee_km": 540.5298999962224,
      "perigee_km": 538.9567740075881,
      "latitude_deg": -6.991115238306262e-05,
      "longitude_deg": -0.37817212089420665,
      "height_km": 540.2361030146635,
      "semi_major_axis_km": 6917.880337001905,
      "eccentricity": 0.0001137,
      "inclination_deg": 53.2157,
      "raan_deg": 107.3043,
      "arg_perigee_deg": 59.1538,
      "mean_anomaly_deg": 300.9565,
      "mean_motion_rev_day": 15.08840017
    }
  ]
}